ORBCOMM FM24            
1 25478U 98053D   25026.91076717  .00002439  00000+0  85501-3 0  9993
2 25478  45.0055 218.6548 0002040 209.1056 150.9679 14.37432356377114
ORBCOMM FM25            
1 25479U 98053E   25027.99189561  .00002519  00000+0  88169-3 0  9997
2 25479  45.0045 211.7896 0004069 245.3988 114.6436 14.37426749377569
ORBCOMM FM26            
1 25480U 98053F   25027.84600351  .00001956  00000+0  70676-3 0  9996
2 25480  45.0043 207.9730 0005550 270.9913  89.0299 14.36582939377566
ORBCOMM FM27            
1 25481U 98053G   25028.18990495  .00002642  00000+0  92228-3 0  9996
2 25481  45.0028 211.0944 0001121 174.7445 185.3415 14.37436155377563
ORBCOMM FM28            
1 25482U 98053H   25027.69342988  .00002332  00000+0  81505-3 0  9992
2 25482  45.0043 151.1857 0004319 286.9908  73.0467 14.37700357378301
ORBCOMM FM30            
1 25980U 99065A   25028.12968688  .00002350  00000+0  83685-3 0  9990
2 25980  45.0318  32.4062 0006445   6.1930 353.8996 14.36742486314839
ORBCOMM FM31            
1 25981U 99065B   25028.02890118  .00002341  00000+0  83472-3 0  9996
2 25981  45.0233  26.4224 0003270  15.4581 344.6366 14.36713098314811
ORBCOMM FM32            
1 25982U 99065C   25027.21626564  .00002411  00000+0  87487-3 0  9997
2 25982  45.0156  45.8906 0004863  21.6723 338.4330 14.35743652314331
